ALOS-4 (DAICHI-4)       
1 60182U 24123A   24280.85900749  .00008493  00000+0  11426-2 0  9996
2 60182  97.9215  15.9098 0001373  89.8445 270.2924 14.79478509 14450
